[{"OBJECT_NAME":"STARLINK-36780","OBJECT_ID":"2026-034S","EPOCH":"2026-03-02T22:00:01.999584","MEAN_MOTION":15.80826827,"ECCENTRICITY":0.00010891,"INCLINATION":53.155,"RA_OF_ASC_NODE":245.1591,"ARG_OF_PERICENTER":77.5669,"MEAN_ANOMALY":63.5886,"EPHEMERIS_TYPE":0,"CLASSIFICATION_TYPE":"U","NORAD_CAT_ID":67866,"ELEMENT_SET_NO":999,"REV_AT_EPOCH":277,"BSTAR":0.00047165424,"MEAN_MOTION_DOT":0.00093201,"MEAN_MOTION_DDOT":0},{"OBJECT_NAME":"STARLINK-36761","OBJECT_ID":"2026-034T","EPOCH":"2026-03-02T22:00:01.999584","MEAN_MOTION":15.80875224,"ECCENTRICITY":0.00012797,"INCLINATION":53.1553,"RA_OF_ASC_NODE":245.15,"ARG_OF_PERICENTER":61.0809,"MEAN_ANOMALY":84.341,"EPHEMERIS_TYPE":0,"CLASSIFICATION_TYPE":"U","NORAD_CAT_ID":67867,"ELEMENT_SET_NO":999,"REV_AT_EPOCH":277,"BSTAR":-5.2675894e-5,"MEAN_MOTION_DOT":-0.00011084,"MEAN_MOTION_DDOT":0},{"OBJECT_NAME":"STARLINK-36762","OBJECT_ID":"2026-034U","EPOCH":"2026-03-02T22:00:01.999584","MEAN_MOTION":15.80817696,"ECCENTRICITY":0.00015511,"INCLINATION":53.155,"RA_OF_ASC_NODE":245.1416,"ARG_OF_PERICENTER":62.571,"MEAN_ANOMALY":87.1245,"EPHEMERIS_TYPE":0,"CLASSIFICATION_TYPE":"U","NORAD_CAT_ID":67868,"ELEMENT_SET_NO":999,"REV_AT_EPOCH":277,"BSTAR":0.00041667271,"MEAN_MOTION_DOT":0.00082115,"MEAN_MOTION_DDOT":0},{"OBJECT_NAME":"STARLINK-36779","OBJECT_ID":"2026-034V","EPOCH":"2026-03-02T22:00:01.999584","MEAN_MOTION":15.80868572,"ECCENTRICITY":0.00014323,"INCLINATION":53.155,"RA_OF_ASC_NODE":245.1325,"ARG_OF_PERICENTER":77.2087,"MEAN_ANOMALY":76.7513,"EPHEMERIS_TYPE":0,"CLASSIFICATION_TYPE":"U","NORAD_CAT_ID":67869,"ELEMENT_SET_NO":999,"REV_AT_EPOCH":277,"BSTAR":8.2804975e-5,"MEAN_MOTION_DOT":0.0001567,"MEAN_MOTION_DDOT":0},{"OBJECT_NAME":"STARLINK-36770","OBJECT_ID":"2026-034W","EPOCH":"2026-03-02T22:00:01.999584","MEAN_MOTION":15.80875272,"ECCENTRICITY":0.00012322,"INCLINATION":53.1543,"RA_OF_ASC_NODE":245.1143,"ARG_OF_PERICENTER":60.9423,"MEAN_ANOMALY":101.5502,"EPHEMERIS_TYPE":0,"CLASSIFICATION_TYPE":"U","NORAD_CAT_ID":67870,"ELEMENT_SET_NO":999,"REV_AT_EPOCH":277,"BSTAR":8.8326942e-5,"MEAN_MOTION_DOT":0.00016769,"MEAN_MOTION_DDOT":0},{"OBJECT_NAME":"STARLINK-36769","OBJECT_ID":"2026-034X","EPOCH":"2026-03-02T22:00:01.999584","MEAN_MOTION":15.80830455,"ECCENTRICITY":8.997e-5,"INCLINATION":53.155,"RA_OF_ASC_NODE":245.1236,"ARG_OF_PERICENTER":78.8856,"MEAN_ANOMALY":79.3567,"EPHEMERIS_TYPE":0,"CLASSIFICATION_TYPE":"U","NORAD_CAT_ID":67871,"ELEMENT_SET_NO":999,"REV_AT_EPOCH":277,"BSTAR":0.00033309599,"MEAN_MOTION_DOT":0.00065413,"MEAN_MOTION_DDOT":0},{"OBJECT_NAME":"STARLINK-36786","OBJECT_ID":"2026-034Y","EPOCH":"2026-03-02T22:00:01.999584","MEAN_MOTION":15.80880326,"ECCENTRICITY":3.308e-5,"INCLINATION":53.155,"RA_OF_ASC_NODE":245.106,"ARG_OF_PERICENTER":25.7961,"MEAN_ANOMALY":140.9676,"EPHEMERIS_TYPE":0,"CLASSIFICATION_TYPE":"U","NORAD_CAT_ID":67872,"ELEMENT_SET_NO":999,"REV_AT_EPOCH":277,"BSTAR":-5.0748224e-5,"MEAN_MOTION_DOT":-0.00010704,"MEAN_MOTION_DDOT":0},{"OBJECT_NAME":"STARLINK-36783","OBJECT_ID":"2026-034Z","EPOCH":"2026-03-02T22:00:01.999584","MEAN_MOTION":15.80831954,"ECCENTRICITY":8.645e-5,"INCLINATION":53.155,"RA_OF_ASC_NODE":245.0959,"ARG_OF_PERICENTER":62.3569,"MEAN_ANOMALY":108.6966,"EPHEMERIS_TYPE":0,"CLASSIFICATION_TYPE":"U","NORAD_CAT_ID":67873,"ELEMENT_SET_NO":999,"REV_AT_EPOCH":277,"BSTAR":0.00042536046,"MEAN_MOTION_DOT":0.00083913,"MEAN_MOTION_DDOT":0},{"OBJECT_NAME":"STARLINK-36730","OBJECT_ID":"2026-034AA","EPOCH":"2026-03-02T22:00:01.999584","MEAN_MOTION":15.80851315,"ECCENTRICITY":0.00010726,"INCLINATION":53.1547,"RA_OF_ASC_NODE":245.0882,"ARG_OF_PERICENTER":79.766,"MEAN_ANOMALY":95.5583,"EPHEMERIS_TYPE":0,"CLASSIFICATION_TYPE":"U","NORAD_CAT_ID":67874,"ELEMENT_SET_NO":999,"REV_AT_EPOCH":277,"BSTAR":0.00020840185,"MEAN_MOTION_DOT":0.00040585,"MEAN_MOTION_DDOT":0},{"OBJECT_NAME":"STARLINK-36727","OBJECT_ID":"2026-034AB","EPOCH":"2026-03-02T22:00:01.999584","MEAN_MOTION":15.80858655,"ECCENTRICITY":6.779e-5,"INCLINATION":53.1531,"RA_OF_ASC_NODE":245.0792,"ARG_OF_PERICENTER":82.3681,"MEAN_ANOMALY":97.2247,"EPHEMERIS_TYPE":0,"CLASSIFICATION_TYPE":"U","NORAD_CAT_ID":67875,"ELEMENT_SET_NO":999,"REV_AT_EPOCH":277,"BSTAR":0.00013964888,"MEAN_MOTION_DOT":0.00026931,"MEAN_MOTION_DDOT":0},{"OBJECT_NAME":"STARLINK-36743","OBJECT_ID":"2026-034AC","EPOCH":"2026-03-02T22:00:01.999584","MEAN_MOTION":15.80856517,"ECCENTRICITY":0.00011544,"INCLINATION":53.153,"RA_OF_ASC_NODE":245.07,"ARG_OF_PERICENTER":90.2289,"MEAN_ANOMALY":93.6354,"EPHEMERIS_TYPE":0,"CLASSIFICATION_TYPE":"U","NORAD_CAT_ID":67876,"ELEMENT_SET_NO":999,"REV_AT_EPOCH":277,"BSTAR":0.000133351,"MEAN_MOTION_DOT":0.00025679,"MEAN_MOTION_DDOT":0},{"OBJECT_NAME":"STARLINK-36784","OBJECT_ID":"2026-034AD","EPOCH":"2026-03-02T22:00:01.999584","MEAN_MOTION":15.80838907,"ECCENTRICITY":0.0001366,"INCLINATION":53.1532,"RA_OF_ASC_NODE":245.0614,"ARG_OF_PERICENTER":59.9582,"MEAN_ANOMALY":128.1775,"EPHEMERIS_TYPE":0,"CLASSIFICATION_TYPE":"U","NORAD_CAT_ID":67877,"ELEMENT_SET_NO":999,"REV_AT_EPOCH":277,"BSTAR":0.00036725994,"MEAN_MOTION_DOT":0.00072282,"MEAN_MOTION_DDOT":0},{"OBJECT_NAME":"STARLINK-36689","OBJECT_ID":"2026-034AE","EPOCH":"2026-03-02T22:00:01.999584","MEAN_MOTION":15.80805932,"ECCENTRICITY":0.00013321,"INCLINATION":53.1532,"RA_OF_ASC_NODE":245.0529,"ARG_OF_PERICENTER":79.6817,"MEAN_ANOMALY":112.745,"EPHEMERIS_TYPE":0,"CLASSIFICATION_TYPE":"U","NORAD_CAT_ID":67878,"ELEMENT_SET_NO":999,"REV_AT_EPOCH":277,"BSTAR":0.00065129102,"MEAN_MOTION_DOT":0.00129387,"MEAN_MOTION_DDOT":0},{"OBJECT_NAME":"STARLINK-36818","OBJECT_ID":"2026-035A","EPOCH":"2026-03-02T22:00:01.999584","MEAN_MOTION":16.01458116,"ECCENTRICITY":0.00012225,"INCLINATION":97.2793,"RA_OF_ASC_NODE":353.7074,"ARG_OF_PERICENTER":107.8353,"MEAN_ANOMALY":93.8782,"EPHEMERIS_TYPE":0,"CLASSIFICATION_TYPE":"U","NORAD_CAT_ID":67879,"ELEMENT_SET_NO":999,"REV_AT_EPOCH":266,"BSTAR":-0.0017204853,"MEAN_MOTION_DOT":-0.00944917,"MEAN_MOTION_DDOT":0.00030002921},{"OBJECT_NAME":"STARLINK-36821","OBJECT_ID":"2026-035B","EPOCH":"2026-03-02T22:00:01.999584","MEAN_MOTION":16.01643432,"ECCENTRICITY":0.00010809,"INCLINATION":97.279,"RA_OF_ASC_NODE":353.7098,"ARG_OF_PERICENTER":99.7508,"MEAN_ANOMALY":107.3295,"EPHEMERIS_TYPE":0,"CLASSIFICATION_TYPE":"U","NORAD_CAT_ID":67880,"ELEMENT_SET_NO":999,"REV_AT_EPOCH":266,"BSTAR":-0.0017063035,"MEAN_MOTION_DOT":-0.00947161,"MEAN_MOTION_DDOT":0.00030199827},{"OBJECT_NAME":"STARLINK-36808","OBJECT_ID":"2026-035C","EPOCH":"2026-03-02T22:00:01.999584","MEAN_MOTION":16.01531058,"ECCENTRICITY":0.00011538,"INCLINATION":97.279,"RA_OF_ASC_NODE":353.7082,"ARG_OF_PERICENTER":104.0255,"MEAN_ANOMALY":99.69,"EPHEMERIS_TYPE":0,"CLASSIFICATION_TYPE":"U","NORAD_CAT_ID":67881,"ELEMENT_SET_NO":999,"REV_AT_EPOCH":266,"BSTAR":-0.001715502,"MEAN_MOTION_DOT":-0.0094613,"MEAN_MOTION_DDOT":0.0003009976}]
