STARLINK-36780          
1 67866U 26034S   26061.91668981  .00093201  00000+0  47165-3 0  9991
2 67866  53.1550 245.1591 0001089  77.5669  63.5886 15.80826827  2778
STARLINK-36761          
1 67867U 26034T   26061.91668981 -.00011084  00000+0 -52676-4 0  9997
2 67867  53.1553 245.1500 0001279  61.0809  84.3410 15.80875224  2776
STARLINK-36762          
1 67868U 26034U   26061.91668981  .00082115  00000+0  41667-3 0  9996
2 67868  53.1550 245.1416 0001551  62.5710  87.1245 15.80817696  2776
STARLINK-36779          
1 67869U 26034V   26061.91668981  .00015670  00000+0  82805-4 0  9999
2 67869  53.1550 245.1325 0001432  77.2087  76.7513 15.80868572  2775
STARLINK-36770          
1 67870U 26034W   26061.91668981  .00016769  00000+0  88327-4 0  9996
2 67870  53.1543 245.1143 0001232  60.9423 101.5502 15.80875272  2778
STARLINK-36769          
1 67871U 26034X   26061.91668981  .00065413  00000+0  33310-3 0  9998
2 67871  53.1550 245.1236 0000899  78.8856  79.3567 15.80830455  2773
STARLINK-36786          
1 67872U 26034Y   26061.91668981 -.00010704  00000+0 -50748-4 0  9999
2 67872  53.1550 245.1060 0000330  25.7961 140.9676 15.80880326  2775
STARLINK-36783          
1 67873U 26034Z   26061.91668981  .00083913  00000+0  42536-3 0  9995
2 67873  53.1550 245.0959 0000864  62.3569 108.6966 15.80831954  2771
STARLINK-36730          
1 67874U 26034AA  26061.91668981  .00040585  00000+0  20840-3 0  9998
2 67874  53.1547 245.0882 0001072  79.7660  95.5583 15.80851315  2771
STARLINK-36727          
1 67875U 26034AB  26061.91668981  .00026931  00000+0  13965-3 0  9998
2 67875  53.1531 245.0792 0000677  82.3681  97.2247 15.80858655  2778
STARLINK-36743          
1 67876U 26034AC  26061.91668981  .00025679  00000+0  13335-3 0  9998
2 67876  53.1530 245.0700 0001154  90.2289  93.6354 15.80856517  2774
STARLINK-36784          
1 67877U 26034AD  26061.91668981  .00072282  00000+0  36726-3 0  9990
2 67877  53.1532 245.0614 0001366  59.9582 128.1775 15.80838907  2778
STARLINK-36689          
1 67878U 26034AE  26061.91668981  .00129387  00000+0  65129-3 0  9999
2 67878  53.1532 245.0529 0001332  79.6817 112.7450 15.80805932  2778
STARLINK-36818          
1 67879U 26035A   26061.91668981 -.00944917  30003-3 -17205-2 0  9998
2 67879  97.2793 353.7074 0001222 107.8353  93.8782 16.01458116  2663
STARLINK-36821          
1 67880U 26035B   26061.91668981 -.00947161  30200-3 -17063-2 0  9995
2 67880  97.2790 353.7098 0001080  99.7508 107.3295 16.01643432  2668
STARLINK-36808          
1 67881U 26035C   26061.91668981 -.00946130  30100-3 -17155-2 0  9992
2 67881  97.2790 353.7082 0001153 104.0255  99.6900 16.01531058  2668
